#dP2021  3  8  6  0  0.00000000      96 __u+U ITR00 EXT  IAC
## 2148 108000.00000000   900.00000000 59281 0.2500000000000
+  116   C06C07C08C09C10C11C12C13C14C16C19C20C21C22C23C24C25
+        C26C27C28C29C30C32C33C34C35C36C37C38C39C40C41C42C43
+        C44C45C46E01E02E03E04E05E07E08E09E11E12E13E14E15E18
+        E19E21E24E25E26E27E30E31E33G01G02G03G04G05G06G07G08
+        G09G10G11G12G13G14G15G16G17G18G19G20G21G22G23G24G25
+        G26G27G28G29G30G31G32J01J02J03R01R02R03R04R05R07R08
+        R09R11R12R13R14R15R16R17R18R19R20R21R22R24  0  0  0
++        11 11  9  9 10  8  7  8  9 10  9  9  8  8  9  9 10
++         9  8  8 10 10 10  9  8 10  9 11 10 10 11  8  9  9
++        10 11  9  8  7  7  7  7  8  8  8  8  8  7  9  9  8
++         8  9  7  9  8  9  8  8  7  7  8  8  8  8  6  8  7
++        11  7  8  7  7  7  7  8  7  8  9  7  7  7  7  7  8
++         7  7  6  8  8  7  8 12  9 11  9 10  7  7  8  8  9
++         9  8  8  9  8  9 10  9  9  9  9  9  8  8  0  0  0
%c M  cc GPS ccc cccc cccc cccc cccc ccccc ccccc ccccc ccccc
%c cc cc ccc ccc cccc cccc cccc cccc ccccc ccccc ccccc ccccc
%f  0.0000000  0.000000000  0.00000000000  0.000000000000000
%f  0.0000000  0.000000000  0.00000000000  0.000000000000000
%i    0    0    0    0      0      0      0      0         0
%i    0    0    0    0      0      0      0      0         0
/* IAC                                ULTRA-RAPID PREDICTION
/* S/V CLOCKS ARE ALIGNED TO GNSS TIME                      
/* G:C1WC2W R:C1PC2P E:C1XC5X C:C2IC6I J:C1CC2S             
/* PCV:IGS14_2134 OL/AL:FES2004  NONE     YN ORB:CoN CLK:CoN
*  2021 03 08 13 30  0.00000000
PC06 -22056.472883  23126.941734 -27284.998719    157.555357
PC07 -16825.720002  37694.850943  -6852.569975    189.028211
PC08  -5651.443547  24401.682985  34117.158867   -903.304650
PC09  -5761.147166  24629.159631 -33508.249836    683.191425
PC10  -6759.708423  40983.758237   5902.004066    -74.937032
PC11  24459.361059  -7344.088590 -11226.840097   -881.016156
PC12  26940.530944   3824.091434   6260.029188    849.532132
PC13   6818.943353  32843.913240  25804.987919    171.631373
PC14  18771.692903 -16570.958571 -12347.828398    204.418587
PC16 -17199.888838  24002.976030 -30098.358768   -725.511089
PC19 -15335.639647  23022.686695   3646.010573    754.069108
PC20 -19164.298219   8835.025145  18265.422139   -925.820701
PC21  11704.877256  11308.386476 -22645.398335   -874.085121
PC22  -2497.443195  24240.988631 -13566.814328   -907.930112
PC23  -7176.233988 -25243.693001   9475.241424   -876.716743
PC24  18803.416504   3032.593858  20391.786695   -777.419072
PC25   7390.813057 -16584.422651  21177.592398   -951.767236
PC26  18912.019191  18757.800077   8373.550371    938.364965
PC27 -21883.722173  -9762.389284 -14337.390314    495.220261
PC28  -3126.918173 -15736.872472 -22828.204482   -100.914953
PC29 -16899.138472  13143.217077  17898.884486    362.176777
PC30 -27718.524299   2645.510345   2063.003033    450.737039
PC32 -11801.789194 -11263.393806  22660.137652   -907.895366
PC33  15232.101987 -23102.446108  -3662.711893   -949.737760
PC34  27589.230263  -3036.814653  -2747.538322   -723.703403
PC35   3274.223616  15722.827729  22815.769910   -384.398695
PC36  -8010.459747  16149.560320 -21284.481217   -744.683533
PC37 -18186.306696 -19729.538271  -7611.776732   -873.351286
PC38  -4502.639262  27583.493918  31635.157759    134.528088
PC39 -15869.307336  25102.378697 -29978.107306     29.179214
PC40 -13435.259524  39667.163731   4224.524931    138.843520
PC41   2577.420472 -24369.610616  13394.269381   -931.134457
PC42  19111.154176  -8195.171856 -18570.258206   -922.927507
PC43  17363.287212 -12975.089998 -17564.594149   -630.181144
PC44  22016.552474   9210.358067  14426.667951     75.317043
PC45   7343.984166  25225.555895  -9445.454652    381.245584
PC46 -18418.239408  -2036.431214 -20853.488388    372.447383
PE01 -14325.081213  12655.733559 -22607.485959  -1061.199898
PE02  14287.469207 -12745.714121  22562.346551    203.551255
PE03  25348.794236 -15062.374436  -2665.430274   -406.601127
PE04 -13264.845165  21856.836690 -14912.087060   -724.639952
PE05  22729.059924    686.206813 -18947.055276   -298.721253
PE07  -6882.453643 -15878.577973  24020.902153   -510.111389
PE08  12922.873354 -21864.285473  15213.506291   6036.293258
PE09   7055.751680  15613.902327 -24131.863041   5741.651941
PE11  17225.287735  18871.430379  14924.911756   6231.641776
PE12  -3718.784665  16047.951909  24596.773834   5320.536873
PE13 -16974.048861 -18836.085346 -15272.116278    413.231711
PE14 -16341.402821 -14017.210078 -22579.962054  -1354.679990
PE15   3558.434316 -16011.148614 -24629.080171    825.713035
PE18  23269.695471   2263.016713  11370.589473  -1481.237900
PE19 -25851.266628  13589.678511   4839.767399    221.686845
PE21 -16228.033916  -9161.370312 -23000.589277   -652.451017
PE24   8269.590267  26837.985953   9386.118300   -781.762676
PE25  16197.795739   9390.727326  22930.208862   -527.988120
PE26 -27528.712120 -10215.014733   3766.447020   2065.732179
PE27  -8788.482412 -26412.534366 -10044.423838     14.801180
PE30   4442.264895 -27681.209460   9451.747078   3123.583083
PE31  -3763.894185  28037.412501  -8726.515144   -478.971619
PE33 -21976.445925   3767.052170  19485.049728   -466.336097
PG01 -22267.568645 -14293.265243   3661.134805    745.897375
PG02   7889.211592  19363.840327  17017.301587   -584.089824
PG03 -13281.091580  -9401.842874  20933.942645   -102.388731
PG04 -20533.001492  -4438.837140  16290.402242   -184.917935
PG05   4929.934021  24004.063413 -10164.392736    -35.650769
PG06  -5254.681110  14300.252332  21814.397596     -0.126413
PG07 -21433.483210  -2794.193209 -15413.946295     83.103238
PG08 -14572.786708  -8958.363127 -20394.318946    -12.953734
PG09 -25042.465849   5590.717318   6843.739409   -329.300398
PG10  11647.198015 -19695.615811 -13142.138099    -76.680171
PG11 -22821.105968 -10526.740093  -8462.495018     -4.642605
PG12  10661.691497  14169.695062  19574.606076    -11.053225
PG13   4041.827021  14560.609570 -21977.293582    105.428609
PG14 -13245.585054  18283.884560 -13991.493873     99.746551
PG15  16070.401404   8140.539587 -19973.846589   -164.534749
PG16   -414.988842 -24941.620709  -8643.328479   -290.888776
PG17 -20272.406550  14159.955352  10115.827137    406.231760
PG18  19433.231560   -447.332569 -18130.961147    349.947316
PG19 -14270.763383  15364.365413  15959.332424    -29.072685
PG20  14855.498451  -8363.654157 -20356.034197    524.347793
PG21 -20781.619982 -16437.437911  -3294.431842    101.472114
PG22 -11332.908694 -18059.592576  16143.747130   -664.787884
PG23  14891.320300  -9414.492834 -19883.754940    117.928904
PG24  21378.303029  16015.594122  -2075.382846      1.352404
PG25  15247.217529  -1392.160838  21418.881342     94.767363
PG26   4160.713860 -25956.834606   2535.095611     55.150762
PG27  -1423.357177 -15324.502222 -21764.436492    -90.093261
PG28 -12386.821340  20546.625590 -11039.689843    605.198424
PG29  25446.286883  -3843.091764   6612.572806   -308.096470
PG30 -13532.491010   8920.977894 -21021.588113   -395.410680
PG31   3353.090987 -16075.633268  20700.157799   -104.365112
PG32  18422.035767 -15875.875749  10573.220901     20.750093
PJ01 -33531.068054  25445.419804   7725.144671   -353.320458
PJ02 -20069.226786  26318.100169 -21634.105168      3.004800
PJ03 -30297.269847  24639.719058  20933.764256     -1.483210
PR01 -17940.733847  15463.760965   9456.137041     76.092634
PR02 -10038.096963  20520.063740 -11370.436625    469.920598
PR03   3704.814050  12076.328689 -22125.159436     32.033438
PR04  15006.748755  -3245.842196 -20338.677030     77.001620
PR05  18014.697643 -16570.759297  -7126.010915     67.800954
PR07  -4302.839948 -11521.116946  22379.703843    -42.527500
PR08 -15133.226076   3198.685469  20346.064006    -57.791067
PR09  -2566.002893 -22507.593268  11804.788702    -18.151934
PR11 -13593.691333  -9403.111037 -19424.393855      2.501742
PR12  -7810.091631   9413.472536 -22367.543968    210.881093
PR13   2398.544743  22190.304707 -12375.683036    -51.711986
PR14  11361.179010  22149.114639   5554.863820     61.792888
PR15  13508.006626   9163.099738  19617.975179    105.039290
PR16   7337.466950 -10400.677793  22055.227788    -12.205872
PR17  15535.794817  10570.278077  17278.267000    406.222356
PR18  24831.599988   5282.464403   2152.121152     69.091426
PR19  21506.740117  -1883.424543 -13579.795115   -134.905584
PR20   3665.698159  -9794.251086 -23252.496038    -44.764226
PR21 -16479.685306 -10350.994506 -16476.134653   -192.875107
PR22 -25064.956377  -4925.507766   -992.616346   -101.542001
PR24  -2874.667807  10475.577942  23098.848671     34.223097
EOF
